{
    "links": {
        "self": "http://www.neowsapp.com/rest/v1/neo/3600006?api_key=iIulBulltgU6a56xZRHN4H3l9WmuAYTsLGpBGhQ2"
    },
    "id": "3600006",
    "neo_reference_id": "3600006",
    "name": "(2012 DY43)",
    "designation": "2012 DY43",
    "nasa_jpl_url": "http://ssd.jpl.nasa.gov/sbdb.cgi?sstr=3600006",
    "absolute_magnitude_h": 23.0,
    "estimated_diameter": {
        "kilometers": {
            "estimated_diameter_min": 0.0667659413,
            "estimated_diameter_max": 0.1492931834
        },
        "meters": {
            "estimated_diameter_min": 66.7659413495,
            "estimated_diameter_max": 149.2931834393
        },
        "miles": {
            "estimated_diameter_min": 0.0414864197,
            "estimated_diameter_max": 0.0927664547
        },
        "feet": {
            "estimated_diameter_min": 219.0483710172,
            "estimated_diameter_max": 489.807047955
        }
    },
    "is_potentially_hazardous_asteroid": false,
    "close_approach_data": [
        {
            "close_approach_date": "2010-02-10",
            "close_approach_date_full": "2010-Feb-10 14:00",
            "epoch_date_close_approach": 1265810400000,
            "relative_velocity": {
                "kilometers_per_second": "14.0679022477",
                "kilometers_per_hour": "50644.448091814",
                "miles_per_hour": "31468.4905379385"
            },
            "miss_distance": {
                "astronomical": "0.2064929089",
                "lunar": "80.3257415621",
                "kilometers": "30890899.341544043",
                "miles": "19194714.7800840734"
            },
            "orbiting_body": "Earth"
        },
        {
            "close_approach_date": "2012-02-17",
            "close_approach_date_full": "2012-Feb-17 21:50",
            "epoch_date_close_approach": 1329515400000,
            "relative_velocity": {
                "kilometers_per_second": "16.9642304225",
                "kilometers_per_hour": "61071.2295209942",
                "miles_per_hour": "37947.2870320867"
            },
            "miss_distance": {
                "astronomical": "0.1096906628",
                "lunar": "42.6696678292",
                "kilometers": "16409489.513768236",
                "miles": "10196383.9712482168"
            },
            "orbiting_body": "Earth"
        },
        {
            "close_approach_date": "2014-02-22",
            "close_approach_date_full": "2014-Feb-22 15:08",
            "epoch_date_close_approach": 1393081680000,
            "relative_velocity": {
                "kilometers_per_second": "19.7997473647",
                "kilometers_per_hour": "71279.0905128012",
                "miles_per_hour": "44290.0548800236"
            },
            "miss_distance": {
                "astronomical": "0.0362272732",
                "lunar": "14.0924092748",
                "kilometers": "5419522.906628084",
                "miles": "3367535.3794881992"
            },
            "orbiting_body": "Earth"
        },
        {
            "close_approach_date": "2016-02-27",
            "close_approach_date_full": "2016-Feb-27 19:21",
            "epoch_date_close_approach": 1456600860000,
            "relative_velocity": {
                "kilometers_per_second": "22.5859433965",
                "kilometers_per_hour": "81309.396227256",
                "miles_per_hour": "50522.4967835414"
            },
            "miss_distance": {
                "astronomical": "0.0965859888",
                "lunar": "37.5719496432",
                "kilometers": "14449058.196323856",
                "miles": "8978228.4372109728"
            },
            "orbiting_body": "Earth"
        },
        {
            "close_approach_date": "2018-03-04",
            "close_approach_date_full": "2018-Mar-04 00:54",
            "epoch_date_close_approach": 1520124840000,
            "relative_velocity": {
                "kilometers_per_second": "25.480305661",
                "kilometers_per_hour": "91729.1003796767",
                "miles_per_hour": "56996.8957331385"
            },
            "miss_distance": {
                "astronomical": "0.1903316142",
                "lunar": "74.0389979238",
                "kilometers": "28473204.077981754",
                "miles": "17692428.6052420452"
            },
            "orbiting_body": "Earth"
        }
    ],
    "orbital_data": {
        "orbit_id": "11",
        "orbit_determination_date": "2017-04-06 08:50:44",
        "first_observation_date": "2012-02-27",
        "last_observation_date": "2012-03-23",
        "data_arc_in_days": 25,
        "observations_used": 26,
        "orbit_uncertainty": "7",
        "minimum_orbit_intersection": ".0354066",
        "jupiter_tisserand_invariant": "4.094",
        "epoch_osculation": "2459000.5",
        "eccentricity": ".641495504832147",
        "semi_major_axis": "1.596893000150843",
        "inclination": "10.38595467840678",
        "ascending_node_longitude": "164.8525125231544",
        "orbital_period": "737.0758003208407",
        "perihelion_distance": ".5724933188561562",
        "perihelion_argument": "253.717387553309",
        "aphelion_distance": "2.62129268144553",
        "perihelion_time": "2458870.186446545403",
        "mean_anomaly": "63.6472927522979",
        "mean_motion": ".4884165235696195",
        "equinox": "J2000",
        "orbit_class": {
            "orbit_class_type": "APO",
            "orbit_class_description": "Near-Earth asteroid orbits which cross the Earth’s orbit similar to that of 1862 Apollo",
            "orbit_class_range": "a (semi-major axis) > 1.0 AU; q (perihelion) < 1.017 AU"
        }
    },
    "is_sentry_object": false
}